NORAD_CAT_ID,OBJECT_NAME,OBJECT_TYPE,EPOCH,MEAN_MOTION,ECCENTRICITY,INCLINATION,RA_OF_ASC_NODE,ARG_OF_PERICENTER,MEAN_ANOMALY,BSTAR,MEAN_MOTION_DOT,MEAN_MOTION_DDOT,TLE_LINE0,TLE_LINE1,TLE_LINE2,SEMIMAJOR_AXIS,PERIOD,APOGEE,PERIGEE,DECAYED
54770.0,STARLINK-5448,PAYLOAD,2024-05-17 18:58:27,15.08837884,0.0001993,53.2143,116.1946,89.8779,270.2441,0.00049249,7.558e-05,0.0,0 STARLINK-5448,1 54770U 22175N   24138.79059669  .00007558  00000-0  49249-3 0  9995,2 54770  53.2143 116.1946 0001993  89.8779 270.2441 15.08837884 80359,6917.887,95.438,541.131,538.373,0.0
54770.0,STARLINK-5448,PAYLOAD,2024-05-18 06:06:09,15.08841723,0.0001621,53.2149,114.111,95.3394,264.7783,0.0004381,6.692e-05,0.0,0 STARLINK-5448,1 54770U 22175N   24139.25427594  .00006692  00000-0  43810-3 0  9999,2 54770  53.2149 114.1110 0001621  95.3394 264.7783 15.08841723 78260,6917.875,95.437,540.862,538.619,0.0
54770.0,STARLINK-5448,PAYLOAD,2024-05-18 15:38:27,15.08859927,0.0001531,53.2149,112.3238,102.2448,257.8716,0.00082456,0.00012866,0.0,0 STARLINK-5448,1 54770U 22175N   24139.65170962  .00012866  00000-0  82456-3 0  9996,2 54770  53.2149 112.3238 0001531 102.2448 257.8716 15.08859927 78320,6917.819,95.436,540.744,538.625,0.0
54770.0,STARLINK-5448,PAYLOAD,2024-05-18 22:00:00,15.08831622,0.0001981,53.2138,111.1398,82.5079,277.6138,-0.00030426,-5.126e-05,0.0,0 STARLINK-5448,1 54770U 22175N   24139.91667593 -.00005126  00000-0 -30426-3 0  9999,2 54770  53.2138 111.1398 0001981  82.5079 277.6138 15.08831622 80526,6917.906,95.438,541.141,538.401,0.0
54770.0,STARLINK-5448,PAYLOAD,2024-05-19 04:21:33,15.08827438,0.0001613,53.2141,109.9479,89.6311,270.4866,-0.00019871,-3.448e-05,0.0,0 STARLINK-5448,1 54770U 22175N   24140.18163881 -.00003448  00000-0 -19871-3 0  9997,2 54770  53.2141 109.9479 0001613  89.6311 270.4866 15.08827438 78407,6917.919,95.438,540.9,538.668,0.0
54770.0,STARLINK-5448,PAYLOAD,2024-05-19 07:32:19,15.08829529,0.0001659,53.2144,109.3525,91.2726,268.8456,-8.7912e-05,-1.686e-05,0.0,0 STARLINK-5448,1 54770U 22175N   24140.31411945 -.00001686  00000-0 -87912-4 0  9993,2 54770  53.2144 109.3525 0001659  91.2726 268.8456 15.08829529 80586,6917.912,95.438,540.925,538.63,0.0
54770.0,STARLINK-5448,PAYLOAD,2024-05-20 04:12:20,15.08847891,0.0001557,53.2158,105.4874,88.5352,271.5819,0.00083531,0.00013034,0.0,0 STARLINK-5448,1 54770U 22175N   24141.17524101  .00013034  00000-0  83531-3 0  9997,2 54770  53.2158 105.4874 0001557  88.5352 271.5819 15.08847891 78556,6917.856,95.437,540.798,538.644,0.0
54770.0,STARLINK-5448,PAYLOAD,2024-05-20 07:23:06,15.08852596,0.0001557,53.216,104.8925,89.3947,270.7224,0.000862,0.00013462,0.0,0 STARLINK-5448,1 54770U 22175N   24141.30771977  .00013462  00000-0  86200-3 0  9998,2 54770  53.2160 104.8925 0001557  89.3947 270.7224 15.08852596 80730,6917.842,95.437,540.784,538.63,0.0
54770.0,STARLINK-5448,PAYLOAD,2024-05-20 21:41:35,15.08847647,0.0001666,53.2167,102.2129,88.9848,271.1335,0.00043289,6.61e-05,0.0,0 STARLINK-5448,1 54770U 22175N   24141.90387930  .00006610  00000-0  43289-3 0  9993,2 54770  53.2167 102.2129 0001666  88.9848 271.1335 15.08847647 78669,6917.857,95.437,540.875,538.57,0.0
54770.0,STARLINK-5448,PAYLOAD,2024-05-21 04:03:07,15.08836731,0.0001402,53.2163,101.0248,88.2639,271.8514,0.00010185,1.333e-05,0.0,0 STARLINK-5448,1 54770U 22175N   24142.16884258  .00001333  00000-0  10185-3 0  9993,2 54770  53.2163 101.0248 0001402  88.2639 271.8514 15.08836731 78706,6917.89,95.438,540.725,538.785,0.0
54770.0,STARLINK-5448,PAYLOAD,2024-05-21 21:32:22,15.08841847,0.0001353,53.2164,97.7516,96.6675,263.4471,6.7384e-05,7.85e-06,0.0,0 STARLINK-5448,1 54770U 22175N   24142.89747972  .00000785  00000-0  67384-4 0  9998,2 54770  53.2164  97.7516 0001353  96.6675 263.4471 15.08841847 80979,6917.875,95.437,540.676,538.804,0.0
54770.0,STARLINK-5448,PAYLOAD,2024-05-22 03:53:54,15.0884412,0.0001375,53.2168,96.5629,97.1341,262.9807,7.2332e-05,8.64e-06,0.0,0 STARLINK-5448,1 54770U 22175N   24143.16243798  .00000864  00000-0  72332-4 0  9993,2 54770  53.2168  96.5629 0001375  97.1341 262.9807 15.08844120 81015,6917.868,95.437,540.684,538.782,0.0
54770.0,STARLINK-5448,PAYLOAD,2024-05-22 21:23:09,15.08837954,0.0001403,53.2171,93.2943,100.5784,259.5367,0.00011124,1.483e-05,0.0,0 STARLINK-5448,1 54770U 22175N   24143.89108060  .00001483  00000-0  11124-3 0  9994,2 54770  53.2171  93.2943 0001403 100.5784 259.5367 15.08837954 78964,6917.887,95.438,540.722,538.781,0.0
54770.0,STARLINK-5448,PAYLOAD,2024-05-23 03:44:42,15.088304,0.0001337,53.2176,92.1053,106.2325,253.8814,7.4407e-05,8.96e-06,0.0,0 STARLINK-5448,1 54770U 22175N   24144.15604799  .00000896  00000-0  74407-4 0  9995,2 54770  53.2176  92.1053 0001337 106.2325 253.8814 15.08830400 79008,6917.91,95.438,540.7,538.85,0.0
54770.0,STARLINK-5448,PAYLOAD,2024-05-23 19:38:31,15.08863435,0.0001341,53.2179,89.1324,125.2832,234.8286,0.00024374,3.596e-05,0.0,0 STARLINK-5448,1 54770U 22175N   24144.81841577  .00003596  00000-0  24374-3 0  9992,2 54770  53.2179  89.1324 0001341 125.2832 234.8286 15.08863435 79104,6917.809,95.436,540.601,538.746,0.0
54770.0,STARLINK-5448,PAYLOAD,2024-05-24 05:10:52,15.08829044,0.0001383,53.2176,87.3494,106.5543,253.5601,-8.7817e-05,-1.685e-05,0.0,0 STARLINK-5448,1 54770U 22175N   24145.21588258 -.00001685  00000-0 -87817-4 0  9992,2 54770  53.2176  87.3494 0001383 106.5543 253.5601 15.08829044 79169,6917.914,95.438,540.736,538.822,0.0
54770.0,STARLINK-5448,PAYLOAD,2024-05-24 06:46:15,15.08828957,0.0001384,53.2176,87.0517,105.5571,254.5574,-9.157e-05,-1.744e-05,0.0,0 STARLINK-5448,1 54770U 22175N   24145.28212274 -.00001744  00000-0 -91570-4 0  9998,2 54770  53.2176  87.0517 0001384 105.5571 254.5574 15.08828957 81337,6917.914,95.438,540.737,538.822,0.0
54770.0,STARLINK-5448,PAYLOAD,2024-05-24 16:18:34,15.08825169,0.0001322,53.2173,85.2681,102.8943,257.2197,-7.3766e-06,-4.05e-06,0.0,0 STARLINK-5448,1 54770U 22175N   24145.67956363 -.00000405  00000-0 -73766-5 0  9996,2 54770  53.2173  85.2681 0001322 102.8943 257.2197 15.08825169 81390,6917.926,95.438,540.705,538.876,0.0
54770.0,STARLINK-5448,PAYLOAD,2024-05-25 05:01:40,15.08814558,0.0001411,53.2173,82.8913,89.8501,270.2653,-9.5325e-05,-1.804e-05,0.0,0 STARLINK-5448,1 54770U 22175N   24146.20949962 -.00001804  00000-0 -95325-4 0  9991,2 54770  53.2173  82.8913 0001411  89.8501 270.2653 15.08814558 79315,6917.958,95.439,540.799,538.847,0.0
54770.0,STARLINK-5448,PAYLOAD,2024-05-25 12:58:39,15.08775433,0.0001062,53.2172,81.4042,101.0673,259.0439,-0.00046442,-7.658e-05,0.0,0 STARLINK-5448,1 54770U 22175N   24146.54073786 -.00007658  00000-0 -46442-3 0  9998,2 54770  53.2172  81.4042 0001062 101.0673 259.0439 15.08775433 79361,6918.078,95.442,540.677,539.208,0.0
54770.0,STARLINK-5448,PAYLOAD,2024-05-26 03:17:01,15.08880793,0.0001294,53.2175,78.7287,84.9876,275.1264,0.00010331,1.358e-05,0.0,0 STARLINK-5448,1 54770U 22175N   24147.13682426  .00001358  00000-0  10331-3 0  9998,2 54770  53.2175  78.7287 0001294  84.9876 275.1264 15.08880793 79456,6917.756,95.435,540.516,538.726,0.0
54770.0,STARLINK-5448,PAYLOAD,2024-05-26 19:10:54,15.08840212,0.0001349,53.2176,75.7533,80.7755,279.339,0.00029794,4.457e-05,0.0,0 STARLINK-5448,1 54770U 22175N   24147.79924598  .00004457  00000-0  29794-3 0  9995,2 54770  53.2176  75.7533 0001349  80.7755 279.3390 15.08840212 79558,6917.88,95.438,540.678,538.812,0.0
54770.0,STARLINK-5448,PAYLOAD,2024-05-27 04:43:12,15.08855108,0.0001574,53.2184,73.9675,90.2943,269.823,0.00042,6.405e-05,0.0,0 STARLINK-5448,1 54770U 22175N   24148.19667361  .00006405  00000-0  42000-3 0  9992,2 54770  53.2184  73.9675 0001574  90.2943 269.8230 15.08855108 79613,6917.834,95.437,540.788,538.61,0.0
54770.0,STARLINK-5448,PAYLOAD,2024-05-27 12:40:08,15.08856201,0.0001416,53.2176,72.4816,100.9982,259.1169,0.00043709,6.678e-05,0.0,0 STARLINK-5448,1 54770U 22175N   24148.52787064  .00006678  00000-0  43709-3 0  9991,2 54770  53.2176  72.4816 0001416 100.9982 259.1169 15.08856201 81826,6917.831,95.437,540.675,538.716,0.0
54770.0,STARLINK-5448,PAYLOAD,2024-05-27 19:01:42,15.08858932,0.0001621,53.2178,71.2967,77.5528,282.5646,2.3486e-05,8.6e-07,0.0,0 STARLINK-5448,1 54770U 22175N   24148.79284957  .00000086  00000-0  23486-4 0  9991,2 54770  53.2178  71.2967 0001621  77.5528 282.5646 15.08858932 79702,6917.823,95.436,540.809,538.566,0.0
54770.0,STARLINK-5448,PAYLOAD,2024-05-27 22:12:28,15.08852566,0.0001314,53.2188,70.6921,82.6628,277.4513,-3.0611e-06,-3.37e-06,0.0,0 STARLINK-5448,1 54770U 22175N   24148.92533217 -.00000337  00000-0 -30611-5 0  9992,2 54770  53.2188  70.6921 0001314  82.6628 277.4513 15.08852566 81888,6917.842,95.437,540.616,538.798,0.0
54770.0,STARLINK-5448,PAYLOAD,2024-05-28 01:23:15,15.08849473,0.0001298,53.2192,70.0982,71.8712,288.2422,-1.7388e-06,-3.16e-06,0.0,0 STARLINK-5448,1 54770U 22175N   24149.05781322 -.00000316  00000-0 -17388-5 0  9992,2 54770  53.2192  70.0982 0001298  71.8712 288.2422 15.08849473 79743,6917.851,95.437,540.614,538.818,0.0
54770.0,STARLINK-5448,PAYLOAD,2024-05-28 22:03:15,15.08853321,0.0001342,53.218,66.2325,83.0982,277.0163,-0.0002219,-3.819e-05,0.0,0 STARLINK-5448,1 54770U 22175N   24149.91893177 -.00003819  00000-0 -22190-3 0  9995,2 54770  53.2180  66.2325 0001342  83.0982 277.0163 15.08853321 82033,6917.84,95.437,540.633,538.776,0.0
54770.0,STARLINK-5448,PAYLOAD,2024-05-29 04:24:47,15.08852723,0.0001408,53.2178,65.0472,91.7813,268.334,-0.00014237,-2.554e-05,0.0,0 STARLINK-5448,1 54770U 22175N   24150.18388704 -.00002554  00000-0 -14237-3 0  9999,2 54770  53.2178  65.0472 0001408  91.7813 268.3340 15.08852723 79910,6917.842,95.437,540.681,538.732,0.0
54770.0,STARLINK-5448,PAYLOAD,2024-05-29 21:53:59,15.08855106,0.0001483,53.2176,61.7855,51.1232,308.9892,0.00031203,4.683e-05,0.0,0 STARLINK-5448,1 54770U 22175N   24150.91249993  .00004683  00000-0  31203-3 0  9991,2 54770  53.2176  61.7855 0001483  51.1232 308.9892 15.08855106 82188,6917.834,95.437,540.725,538.673,0.0
